IRIDIUM 57              
1 25273U 98019B   25017.91758900  .00000604  00000+0  20238-3 0  9997
2 25273  86.3961 208.1553 0001978  92.0406 268.1018 14.35688800403437
IRIDIUM 63              
1 25286U 98021B   25018.41040910  .00000985  00000+0  33053-3 0  9996
2 25286  86.4025 144.9444 0002100  90.5605 269.5832 14.36327716402616
IRIDIUM 69              
1 25319U 98026A   25018.46334429  .00001340  00000+0  41375-3 0  9996
2 25319  86.4021 158.6459 0003631 128.9406 231.2117 14.40682998401748
IRIDIUM 71              
1 25320U 98026B   25018.07469632  .00001013  00000+0  30979-3 0  9995
2 25320  86.4019 153.5340 0001796 161.6039 198.5225 14.40911308402225
IRIDIUM 73              
1 25344U 98032C   25017.78200023  .00001179  00000+0  29100-3 0  9999
2 25344  86.4424 110.7100 0002598 106.4723 253.6768 14.51355891408747
IRIDIUM 82              
1 25467U 98051A   25018.48399908  .00035208  00000+0  13050-2 0  9991
2 25467  86.3732 182.7430 0103061 141.0958 219.7763 15.22520763401103
